NORAD_CAT_ID,OBJECT_NAME,OBJECT_TYPE,EPOCH,MEAN_MOTION,ECCENTRICITY,INCLINATION,RA_OF_ASC_NODE,ARG_OF_PERICENTER,MEAN_ANOMALY,BSTAR,MEAN_MOTION_DOT,MEAN_MOTION_DDOT,TLE_LINE0,TLE_LINE1,TLE_LINE2,SEMIMAJOR_AXIS,PERIOD,APOGEE,PERIGEE,DECAYED
52630.0,STARLINK-3989,PAYLOAD,2023-01-04 22:12:46,15.08851897,0.0003089,53.2179,75.5194,28.5944,331.5217,0.00031025,4.654e-05,0.0,0 STARLINK-3989,1 52630U 22052AJ  23004.92554333  .00004654  00000-0  31025-3 0  9993,2 52630  53.2179  75.5194 0003089  28.5944 331.5217 15.08851897 36281,6917.844,95.437,541.846,537.572,0.0
52630.0,STARLINK-3989,PAYLOAD,2023-01-05 10:55:52,15.08834278,0.0002777,53.2176,73.1403,34.9476,325.1698,-6.7007e-05,-1.355e-05,0.0,0 STARLINK-3989,1 52630U 22052AJ  23005.45547038 -.00001355  00000-0 -67007-4 0  9993,2 52630  53.2176  73.1403 0002777  34.9476 325.1698 15.08834278 36364,6917.898,95.438,541.684,537.842,0.0
52630.0,STARLINK-3989,PAYLOAD,2023-01-05 14:06:38,15.08835673,0.0002819999999999,53.2162,72.5449,34.2747,325.8426,-5.6848e-06,-3.79e-06,0.0,0 STARLINK-3989,1 52630U 22052AJ  23005.58795082 -.00000379  00000-0 -56848-5 0  9998,2 52630  53.2162  72.5449 0002820  34.2747 325.8426 15.08835673 36002,6917.894,95.438,541.7090000000002,537.808,0.0
52630.0,STARLINK-3989,PAYLOAD,2023-01-06 13:57:25,15.08849179,0.0002639,53.214,68.0843,40.6209,319.4979,0.00061182,9.465e-05,0.0,0 STARLINK-3989,1 52630U 22052AJ  23006.58155027  .00009465  00000-0  61182-3 0  9996,2 52630  53.2140  68.0843 0002639  40.6209 319.4979 15.08849179 36534,6917.852,95.437,541.543,537.8919999999998,0.0
52630.0,STARLINK-3989,PAYLOAD,2023-01-07 04:15:54,15.08826618,0.0002334,53.2159,65.4078,43.7881,316.3296,-0.00012016,-2.2e-05,0.0,0 STARLINK-3989,1 52630U 22052AJ  23007.17771709 -.00002200  00000-0 -12016-3 0  9997,2 52630  53.2159  65.4078 0002334  43.7881 316.3296 15.08826618 36628,6917.920999999999,95.438,541.401,538.172,0.0
52630.0,STARLINK-3989,PAYLOAD,2023-01-07 13:48:13,15.08836482,0.0002197,53.2153,63.6238,37.9723,322.1424,0.00064293,9.958e-05,0.0,0 STARLINK-3989,1 52630U 22052AJ  23007.57516105  .00009958  00000-0  64293-3 0  9997,2 52630  53.2153  63.6238 0002197  37.9723 322.1424 15.08836482 36681,6917.891,95.438,541.276,538.236,0.0
52630.0,STARLINK-3989,PAYLOAD,2023-01-07 20:09:46,15.08822937,0.000246,53.2151,62.4334,43.2539,316.8646,0.00031735,4.764e-05,0.0,0 STARLINK-3989,1 52630U 22052AJ  23007.84012651  .00004764  00000-0  31735-3 0  9999,2 52630  53.2151  62.4334 0002460  43.2539 316.8646 15.08822937 36340,6917.933000000001,95.439,541.499,538.096,0.0
52630.0,STARLINK-3989,PAYLOAD,2023-01-08 04:06:42,15.08832556,0.0002233,53.2146,60.9469,47.5239,312.5942,0.00040366,6.141e-05,0.0,0 STARLINK-3989,1 52630U 22052AJ  23008.17132836  .00006141  00000-0  40366-3 0  9995,2 52630  53.2146  60.9469 0002233  47.5239 312.5942 15.08832556 36775,6917.903,95.438,541.313,538.2230000000002,0.0
52630.0,STARLINK-3989,PAYLOAD,2023-01-08 20:00:34,15.08842213,0.0002762,53.2146,57.9738,49.6612,310.4621,0.0004431999999999,6.773e-05,0.0,0 STARLINK-3989,1 52630U 22052AJ  23008.83372999  .00006773  00000-0  44320-3 0  9999,2 52630  53.2146  57.9738 0002762  49.6612 310.4621 15.08842213 36496,6917.874,95.437,541.649,537.828,0.0
52630.0,STARLINK-3989,PAYLOAD,2023-01-09 02:22:06,15.088472400000002,0.0002266,53.2141,56.7834,42.052,318.0646,0.00047253,7.242e-05,0.0,0 STARLINK-3989,1 52630U 22052AJ  23009.09868588  .00007242  00000-0  47253-3 0  9992,2 52630  53.2141  56.7834 0002266  42.0520 318.0646 15.08847240 36530,6917.858,95.437,541.2909999999998,538.156,0.0
52630.0,STARLINK-3989,PAYLOAD,2023-01-10 02:12:53,15.08852924,0.0002608,53.2127,52.3222,48.0672,312.0542,0.0002315,3.399e-05,0.0,0 STARLINK-3989,1 52630U 22052AJ  23010.09228031  .00003399  00000-0  23150-3 0  9996,2 52630  53.2127  52.3222 0002608  48.0672 312.0542 15.08852924 37064,6917.840999999999,95.437,541.51,537.9019999999998,0.0
52630.0,STARLINK-3989,PAYLOAD,2023-01-10 11:45:11,15.08846051,0.000241,53.2146,50.5377,49.1193,311.0008,7.1722e-05,8.53e-06,0.0,0 STARLINK-3989,1 52630U 22052AJ  23010.48972164  .00000853  00000-0  71722-4 0  9993,2 52630  53.2146  50.5377 0002410  49.1193 311.0008 15.08846051 37124,6917.861999999999,95.437,541.394,538.06,0.0
52630.0,STARLINK-3989,PAYLOAD,2023-01-11 10:00:35,15.08850218,0.000212,53.2133,46.3737,51.7407,308.3775,0.00011354,1.52e-05,0.0,0 STARLINK-3989,1 52630U 22052AJ  23011.41707682  .00001520  00000-0  11354-3 0  9994,2 52630  53.2133  46.3737 0002120  51.7407 308.3775 15.08850218 36880,6917.849,95.437,541.181,538.248,0.0
52630.0,STARLINK-3989,PAYLOAD,2023-01-11 19:32:54,15.08845091,0.0002107,53.2136,44.5898,58.8102,301.3096,0.00016066,2.27e-05,0.0,0 STARLINK-3989,1 52630U 22052AJ  23011.81451800  .00002270  00000-0  16066-3 0  9994,2 52630  53.2136  44.5898 0002107  58.8102 301.3096 15.08845091 36945,6917.865,95.437,541.187,538.2719999999998,0.0
52630.0,STARLINK-3989,PAYLOAD,2023-01-12 01:54:26,15.0885281,0.0002409,53.2144,43.404,56.5018,303.6204,-0.00023249,-3.988e-05,0.0,0 STARLINK-3989,1 52630U 22052AJ  23012.07947427 -.00003988  00000-0 -23249-3 0  9998,2 52630  53.2144  43.4040 0002409  56.5018 303.6204 15.08852810 37367,6917.840999999999,95.437,541.373,538.04,0.0
52630.0,STARLINK-3989,PAYLOAD,2023-01-12 08:15:59,15.08842458,0.0002066,53.2135,42.2104,65.611,294.5098,0.00010054,1.312e-05,0.0,0 STARLINK-3989,1 52630U 22052AJ  23012.34443889  .00001312  00000-0  10054-3 0  9998,2 52630  53.2135  42.2104 0002066  65.6110 294.5098 15.08842458 37409,6917.873000000001,95.437,541.1669999999998,538.309,0.0
52630.0,STARLINK-3989,PAYLOAD,2023-01-12 19:23:41,15.08842513,0.0002134,53.213,40.1298,64.6531,295.4682,6.086100000000001e-05,6.81e-06,0.0,0 STARLINK-3989,1 52630U 22052AJ  23012.80811839  .00000681  00000-0  60861-4 0  9993,2 52630  53.2130  40.1298 0002134  64.6531 295.4682 15.08842513 37093,6917.873000000001,95.437,541.214,538.261,0.0
52630.0,STARLINK-3989,PAYLOAD,2023-01-13 08:06:46,15.08841953,0.0002046999999999,53.2148,37.7499,72.4654,287.6561,-2.9289e-05,-7.54e-06,0.0,0 STARLINK-3989,1 52630U 22052AJ  23013.33803995 -.00000754  00000-0 -29289-4 0  9998,2 52630  53.2148  37.7499 0002047  72.4654 287.6561 15.08841953 37178,6917.874,95.437,541.156,538.323,0.0
52630.0,STARLINK-3989,PAYLOAD,2023-01-14 00:00:38,15.08835231,0.0002039,53.2135,34.7775,71.0087,289.1126,6.1677e-05,6.93e-06,0.0,0 STARLINK-3989,1 52630U 22052AJ  23014.00044543  .00000693  00000-0  61677-4 0  9996,2 52630  53.2135  34.7775 0002039  71.0087 289.1126 15.08835231 37653,6917.895,95.438,541.1709999999999,538.349,0.0
52630.0,STARLINK-3989,PAYLOAD,2023-01-14 11:08:19,15.0884671,0.0001963,53.2133,32.6943,77.5759,282.5453,0.00017145,2.442e-05,0.0,0 STARLINK-3989,1 52630U 22052AJ  23014.46411952  .00002442  00000-0  17145-3 0  9992,2 52630  53.2133  32.6943 0001963  77.5759 282.5453 15.08846710 37729,6917.86,95.437,541.0830000000001,538.367,0.0
52630.0,STARLINK-3989,PAYLOAD,2023-01-15 01:26:48,15.08839621,0.0001828,53.213,30.0145,81.0772,279.0427,0.00017088,2.432e-05,0.0,0 STARLINK-3989,1 52630U 22052AJ  23015.06028454  .00002432  00000-0  17088-3 0  9995,2 52630  53.2130  30.0145 0001828  81.0772 279.0427 15.08839621 37812,6917.882,95.438,541.011,538.482,0.0
52630.0,STARLINK-3989,PAYLOAD,2023-01-16 09:14:30,15.08852768,0.0001558,53.2142,24.0722,85.3287,274.7883,0.00022154,3.241e-05,0.0,0 STARLINK-3989,1 52630U 22052AJ  23016.38507381  .00003241  00000-0  22154-3 0  9991,2 52630  53.2142  24.0722 0001558  85.3287 274.7883 15.08852768 38015,6917.840999999999,95.437,540.784,538.629,0.0
52630.0,STARLINK-3989,PAYLOAD,2023-01-16 18:46:49,15.08838977,0.0001979,53.2139,22.2893,79.8055,280.316,-0.00011743,-2.157e-05,0.0,0 STARLINK-3989,1 52630U 22052AJ  23016.78252092 -.00002157  00000-0 -11743-3 0  9990,2 52630  53.2139  22.2893 0001979  79.8055 280.3160 15.08838977 38071,6917.884,95.438,541.118,538.379,0.0
52630.0,STARLINK-3989,PAYLOAD,2023-01-16 20:22:14,15.08804199,0.0001776,53.2139,21.9886,94.6202,265.4992,-0.00044028,-7.281e-05,0.0,0 STARLINK-3989,1 52630U 22052AJ  23016.84877799 -.00007281  00000-0 -44028-3 0  9999,2 52630  53.2139  21.9886 0001776  94.6202 265.4992 15.08804199 37708,6917.99,95.44,541.0830000000001,538.626,0.0
52630.0,STARLINK-3989,PAYLOAD,2023-01-17 02:43:47,15.08808962,0.0001628,53.2152,20.8014,82.0906,278.027,-0.00039109,-6.502e-05,0.0,0 STARLINK-3989,1 52630U 22052AJ  23017.11374054 -.00006502  00000-0 -39109-3 0  9995,2 52630  53.2152  20.8014 0001628  82.0906 278.0270 15.08808962 38120,6917.975,95.44,540.967,538.714,0.0
52630.0,STARLINK-3989,PAYLOAD,2023-01-17 10:40:42,15.08820617,0.0001551,53.2144,19.313,85.3205,274.7964,-0.00020516,-3.55e-05,0.0,0 STARLINK-3989,1 52630U 22052AJ  23017.44493821 -.00003550  00000-0 -20516-3 0  9997,2 52630  53.2144  19.3130 0001551  85.3205 274.7964 15.08820617 38175,6917.94,95.439,540.878,538.732,0.0
52630.0,STARLINK-3989,PAYLOAD,2023-01-17 17:02:15,15.08829318,0.0001548,53.2146,18.1244,82.0441,278.0726,7.9016e-05,9.69e-06,0.0,0 STARLINK-3989,1 52630U 22052AJ  23017.70989759  .00000969  00000-0  79016-4 0  9995,2 52630  53.2146  18.1244 0001548  82.0441 278.0726 15.08829318 38217,6917.9130000000005,95.438,540.849,538.707,0.0
52630.0,STARLINK-3989,PAYLOAD,2023-01-18 00:59:10,15.08840997,0.0001541999999999,53.2143,16.6374,80.9494,279.1672,0.00041934,6.392e-05,0.0,0 STARLINK-3989,1 52630U 22052AJ  23018.04109566  .00006392  00000-0  41934-3 0  9996,2 52630  53.2143  16.6374 0001542  80.9494 279.1672 15.08840997 38263,6917.877,95.437,540.809,538.6759999999999,0.0
52630.0,STARLINK-3989,PAYLOAD,2023-01-18 07:20:43,15.0887518,0.0001651,53.2139,15.4476,79.4147,280.7031,0.0023503,0.00037352,0.0,0 STARLINK-3989,1 52630U 22052AJ  23018.30605733  .00037352  00000-0  23503-2 0  9993,2 52630  53.2139  15.4476 0001651  79.4147 280.7031 15.08875180 38301,6917.773,95.435,540.78,538.496,0.0
